GALAXY 25 (G-25)        
1 24812U 97026A   23048.84676418 -.00000121  00000+0  00000+0 0  9995
2 24812   4.3028  81.1954 0006898 303.6569 172.3842  0.99033124 94187
INTELSAT 5 (IS-5)       
1 24916U 97046A   23048.81008029 -.00000070  00000+0  00000+0 0  9999
2 24916   7.7514  59.3047 0004034 240.5513 305.4137  1.00272445 93423
GALAXY 11 (G-11)        
1 26038U 99071A   23048.61492306 -.00000170  00000+0  00000+0 0  9990
2 26038   3.6460  84.7797 0001105 325.4617 225.3256  1.00270813 84893
INTELSAT 9 (IS-9)       
1 26451U 00043A   23048.83884470 -.00000295  00000+0  00000+0 0  9999
2 26451   7.7364  59.4879 0002124 259.7947  80.2299  1.00269715 31950
INTELSAT 1R (IS-1R)     
1 26608U 00072A   23048.95176035 -.00000148  00000+0  00000+0 0  9996
2 26608   5.0283  77.5377 0001017 344.3701 225.4544  1.00271727 81461
INTELSAT 10 (IS-10)     
1 26766U 01019A   23048.81243375  .00000026  00000+0  00000+0 0  9994
2 26766   6.1594  71.2292 0002735 256.9287 289.6198  1.00272627 79740
INTELSAT 901 (IS-901)   
1 26824U 01024A   23048.98671345 -.00000210  00000+0  00000+0 0  9991
2 26824   0.0550 277.1032 0000865  83.7281 114.5640  1.00271896 79409
INTELSAT 902 (IS-902)   
1 26900U 01039A   23049.05391757 -.00000292  00000+0  00000+0 0  9997
2 26900   3.0240  86.2800 0002011 231.1525 159.6115  1.00271456 78587
INTELSAT 904 (IS-904)   
1 27380U 02007A   23049.05801432 -.00000224  00000+0  00000+0 0  9997
2 27380   3.8516  83.3063 0002994 253.7573 162.0538  1.00269702 76908
DIRECTV 5 (TEMPO 1)     
1 27426U 02023A   23048.89851601 -.00000063  00000+0  00000+0 0  9991
2 27426   1.7510  90.3396 0003144 243.7098  26.8679  1.00271393 75930
INTELSAT 905 (IS-905)   
1 27438U 02027A   23049.05897313 -.00000194  00000+0  00000+0 0  9992
2 27438   3.6744  84.0178 0002685 257.2237 163.2230  1.00269952 75785
GALAXY 3C (G-3C)        
1 27445U 02030A   23048.90156678 -.00000159  00000+0  00000+0 0  9990
2 27445   0.5964  92.2687 0000667 263.5094  21.5055  1.00270393 34303
INTELSAT 906 (IS-906)   
1 27513U 02041A   23048.88002083  .00000006  00000+0  00000+0 0  9995
2 27513   2.6938  87.6702 0003298 220.4350 220.3966  1.00271121 74842
GALAXY 12 (G-12)        
1 27715U 03013B   23048.67959941  .00000050  00000+0  00000+0 0  9999
2 27715   3.8837  82.9838 0002054 266.3994 273.6373  1.00271540 39903
GALAXY 23 (G-23)        
1 27854U 03034A   23049.39702050  .00000004  00000+0  00000+0 0  9992
2 27854   0.0560 105.7803 0002543 237.6138 186.6177  1.00272423 76366
GALAXY 13 (HORIZONS-1)  
1 27954U 03044A   23048.60829851  .00000043  00000+0  00000+0 0  9999
2 27954   0.0089 114.0532 0001945 213.7515 271.4558  1.00270898 34380
INTELSAT 10-02          
1 28358U 04022A   23049.12744137 -.00000019  00000+0  00000+0 0  9990
2 28358   0.0469 275.2202 0000905  81.8025 195.6706  1.00271323 68440
XM-3 (RHYTHM)           
1 28626U 05008A   23049.20813361 -.00000214  00000+0  00000+0 0  9995
2 28626   0.0335 247.3455 0000429 192.5440  57.8221  1.00271660 65882
DIRECTV 8               
1 28659U 05019A   23049.11188222 -.00000007  00000+0  00000+0 0  9994
2 28659   0.0104 103.1099 0002749 240.8270  85.0833  1.00271285 65009
GALAXY 28 (G-28)        
1 28702U 05022A   23049.40475618 -.00000194  00000+0  00000+0 0  9994
2 28702   0.1591  91.1347 0003237 246.9700 226.6832  1.00271243 64644
GALAXY 14 (G-14)        
1 28790U 05030A   23049.10813192  .00000146  00000+0  00000+0 0  9996
2 28790   1.8840  89.5538 0001875 245.0733 244.9682  1.00270809 64116
GALAXY 15 (G-15)        
1 28884U 05041A   23048.89790586 -.00000051  00000+0  00000+0 0  9994
2 28884   0.4374  92.7176 0004487 225.8341  39.2437  1.00322199 63420
SPACEWAY 2              
1 28903U 05046B   23048.67759461  .00000096  00000+0  00000+0 0  9992
2 28903   2.4637  85.5803 0000856 114.1975  52.6227  1.00269408 39154
GALAXY 16 (G-16)        
1 29236U 06023A   23048.90069514 -.00000133  00000+0  00000+0 0  9990
2 29236   0.0555 273.9628 0002494  57.8965  40.9684  1.00269552 60787
DIRECTV 9S              
1 29494U 06043A   23049.04371928 -.00000121  00000+0  00000+0 0  9996
2 29494   0.0232 129.9891 0003107 215.0000  77.2902  1.00269552 59927
XM-4 (BLUES)            
1 29520U 06049A   23049.05330741 -.00000281  00000+0  00000+0 0  9998
2 29520   0.1047 282.3432 0004423 101.6396  89.7478  1.00595219 59813
GALAXY 17 (G-17)        
1 31307U 07016B   23049.40432036 -.00000183  00000+0  00000+0 0  9999
2 31307   0.0071 146.7642 0001908 161.6180 254.2455  1.00271306 57891
DIRECTV 10              
1 31862U 07032A   23049.40196691 -.00000112  00000+0  00000+0 0  9999
2 31862   0.0027 335.4592 0000183  68.2753 146.2480  1.00271799 57222
SPACEWAY 3              
1 32018U 07036A   23049.40353588 -.00000161  00000+0  00000+0 0  9991
2 32018   0.8501  90.9950 0000165 346.5141 120.8807  1.00270599 56941
INTELSAT 11 (IS-11)     
1 32253U 07044B   23049.05531220 -.00000277  00000+0  00000+0 0  9991
2 32253   0.4121  93.7146 0002836 243.1608 147.7643  1.00271076 56342
HORIZONS-2              
1 32388U 07063B   23049.40780696 -.00000262  00000+0  00000+0 0  9997
2 32388   0.0209 128.0653 0002084 217.9039 235.1461  1.00269036 55691
DIRECTV 11              
1 32729U 08013A   23049.40275139 -.00000135  00000+0  00000+0 0  9992
2 32729   0.0232   7.7730 0000133 157.2224  28.8839  1.00272298 54756
GALAXY 18 (G-18)        
1 32951U 08024A   23048.75212059  .00000019  00000+0  00000+0 0  9990
2 32951   0.0139 104.1492 0003090 240.4491 310.5931  1.00271096 33668
INTELSAT 25 (IS-25)     
1 33153U 08034A   23049.05757848 -.00000232  00000+0  00000+0 0  9998
2 33153   0.0215 105.7949 0002751 231.5321 159.6669  1.00269100 53450
GALAXY 19 (G-19)        
1 33376U 08045A   23048.90113096 -.00000146  00000+0  00000+0 0  9995
2 33376   0.0154 106.4434 0002902 232.7315  35.8044  1.00270362 52712
FM-5                    
1 35493U 09034A   23049.04677005 -.00000208  00000+0  00000+0 0  9996
2 35493   0.0264 114.7361 0000581  35.4038 288.3097  1.00269567 49790
INTELSAT 14 (IS-14)     
1 36097U 09064A   23048.83980352 -.00000280  00000+0  00000+0 0  9998
2 36097   0.0237 116.7092 0002251 217.9500  70.2202  1.00270113 48504
INTELSAT 15 (IS-15)     
1 36106U 09067A   23048.88985704 -.00000192  00000+0  00000+0 0  9995
2 36106   0.0152  70.6513 0002130 263.6489 218.7756  1.00271404 29042
DIRECTV 12              
1 36131U 09075A   23049.04345779 -.00000111  00000+0  00000+0 0  9994
2 36131   0.0318 250.3003 0000295 159.4995  10.8610  1.00272601 48208
INTELSAT 16 (IS-16)     
1 36397U 10006A   23048.83352765 -.00000251  00000+0  00000+0 0  9998
2 36397   0.0153  77.9106 0001934 269.7225  23.7456  1.00271582 47463
XM-5                    
1 37185U 10053A   23049.04093000 -.00000031  00000+0  00000+0 0  9990
2 37185   0.0193 124.0267 0000697  54.0401 229.2188  1.00270618 45261
INTELSAT 17 (IS-17)     
1 37238U 10065B   23049.07701626 -.00000010  00000+0  00000+0 0  9992
2 37238   0.0221 131.9144 0002512 199.4348 270.1338  1.00272522 44734
INTELSAT NEW DAWN       
1 37392U 11016A   23048.92701892  .00000148  00000+0  00000+0 0  9999
2 37392   0.0104 164.4283 0000594 298.8761  50.7998  1.00271827 41100
INTELSAT 18 (IS-18)     
1 37834U 11056A   23049.09976630  .00000044  00000+0  00000+0 0  9992
2 37834   0.0232  38.0153 0001862 305.6695  20.0015  1.00270407 41661
INTELSAT 22 (IS-22)     
1 38098U 12011A   23048.88103475 -.00000066  00000+0  00000+0 0  9997
2 38098   0.0234  98.2446 0002591 229.7092 208.8836  1.00272266 39632
INTELSAT 19 (IS-19)     
1 38356U 12030A   23048.88178036 -.00000064  00000+0  00000+0 0  9998
2 38356   0.0148 105.4347 0003116 235.7803 289.7922  1.00271371 39321
INTELSAT 20 (IS-20)     
1 38740U 12043A   23049.07753926 -.00000032  00000+0  00000+0 0  9993
2 38740   0.0226 118.5832 0002007  54.4974  71.0852  1.00270438 38643
INTELSAT 21 (IS-21)     
1 38749U 12045A   23049.05234861 -.00000293  00000+0  00000+0 0  9993
2 38749   0.0248 112.8291 0001708 220.8626 134.9170  1.00269665 38453
INTELSAT 23 (IS-23)     
1 38867U 12057A   23049.41190370 -.00000294  00000+0  00000+0 0  9994
2 38867   0.0468 272.5715 0001295 101.1847 229.5988  1.00266592 37925
FM-6                    
1 39360U 13058A   23048.89720854 -.00000024  00000+0  00000+0 0  9993
2 39360   0.0085  95.8988 0000556 127.2161 131.3035  1.00272769 34163
INTELSAT 30 (IS-30)     
1 40271U 14062A   23046.39141247 -.00000145  00000+0  00000+0 0  9992
2 40271   0.0169 110.1439 0002355   1.3727  79.4444  1.00270219 30373
DIRECTV 14              
1 40333U 14078B   23049.04415510 -.00000133  00000+0  00000+0 0  9997
2 40333   0.0183  80.0708 0000724 106.5056 237.7982  1.00271295 30060
DIRECTV 15              
1 40663U 15026A   23049.47370360 -.00000112  00000+0  00000+0 0  9994
2 40663   0.0137 111.3409 0000418  52.9541  51.5161  1.00273269 28357
SKY MEXICO-1            
1 40664U 15026B   23049.04816469 -.00000242  00000+0  00000+0 0  9997
2 40664   0.0196 100.4433 0001918 243.9129 101.9806  1.00269257 28357
INTELSAT 34 (IS-34)     
1 40874U 15039A   23049.05287160 -.00000293  00000+0  00000+0 0  9991
2 40874   0.0070 127.2250 0000247  26.4202 317.6139  1.00268577 27432
INTELSAT 31 (IS-31)     
1 41581U 16035A   23047.89744316 -.00000152  00000+0  00000+0 0  9999
2 41581   0.0262 224.1418 0002163 339.7282 170.7389  1.00269733 24494
INTELSAT 36 (IS-36)     
1 41747U 16053A   23049.07753926 -.00000032  00000+0  00000+0 0  9999
2 41747   0.0162  68.5618 0000880 299.5038 236.0969  1.00270377 23759
INTELSAT 33E (IS-33E)   
1 41748U 16053B   23049.43439226  .00000040  00000+0  00000+0 0  9992
2 41748   0.0188 117.6478 0001287 224.3321  22.5272  1.00271637 24049
INTELSAT 32E (IS-32E)   
1 41945U 17007B   23046.76034584 -.00000266  00000+0  00000+0 0  9993
2 41945   0.0138 106.6582 0000270 340.5641 288.7843  1.00268848 22020
INTELSAT 35E (IS-35E)   
1 42818U 17041A   23049.41556463 -.00000248  00000+0  00000+0 0  9991
2 42818   0.0116 116.9687 0001897 225.0604 281.1729  1.00270928 20624
INTELSAT 37E (IS-37E)   
1 42950U 17059A   23047.62589687 -.00000142  00000+0  00000+0 0  9995
2 42950   0.0147 117.4716 0002352 214.7426  21.4274  1.00271152 19862
AZERSPACE 2 (IS-38)     
1 43632U 18074A   23047.29771576  .00000137  00000+0  00000+0 0  9997
2 43632   0.0137 109.2888 0001290 236.2063 312.7791  1.00271076 16248
HORIZONS-3E             
1 43633U 18074B   23049.45618345 -.00000041  00000+0  00000+0 0  9997
2 43633   0.0213 119.8541 0000856 238.9219 122.5946  1.00268748 16146
AT&T T-16               
1 44333U 19034A   23049.38035476 -.00000124  00000+0  00000+0 0  9994
2 44333   0.0244 121.9970 0001128  48.7698  13.3968  1.00265354 13451
INTELSAT 39 (IS-39)     
1 44476U 19049B   23049.27688319  .00000025  00000+0  00000+0 0  9995
2 44476   0.0188 105.7482 0001748  43.2373 160.5817  1.00270426 12950
GALAXY 30 (G-30)        
1 46114U 20056C   23046.31374855  .00000042  00000+0  00000+0 0  9994
2 46114   0.0161 108.7693 0001844 234.6834 149.5345  1.00270649  9084
GALAXY 33 (G-33)        
1 54026U 22128A   23048.67881491  .00000073  00000+0  00000+0 0  9991
2 54026   0.0179 101.9055 0001714 241.3459 275.4827  1.00270588  1566
GALAXY 34 (G-34)        
1 54027U 22128B   23047.95097773  .00000056  00000+0  00000+0 0  9995
2 54027   0.0159  96.6265 0002582 323.2173 300.1554  1.00273321  1713
GALAXY 31 (G-31)        
1 54243U 22153A   23049.39702050  .00000004  00000+0  00000+0 0  9997
2 54243   0.0167 171.2402 0003374 119.2192 239.5341  1.00271413   975
GALAXY 32 (G-32)        
1 54244U 22153B   23048.61483588 -.00000212  00000+0  00000+0 0  9996
2 54244   0.0359 306.8008 0002884  44.5109 283.0047  1.00696995   962
GALAXY 35 (G-35)        
1 54741U 22170A   23048.67768177  .00000033  00000+0  00000+0 0  9993
2 54741   0.0716 284.3029 0002449 112.3133 216.0065  1.00832703   709
GALAXY 36 (G-36)        
1 54742U 22170B   23048.90034647 -.00000206  00000+0  00000+0 0  9991
2 54742   0.0363 101.6783 0001849 222.9801  46.2395  1.00943849   588
